ATLAS CENTAUR 2         
1 00694U 63047A   26192.45184074  .00000776  00000+0  83841-4 0  9999
2 00694  30.3509 223.6938 0545720  91.5094 274.8057 14.12561110149138
THOR AGENA D R/B        
1 00733U 64002A   26192.64649295  .00000078  00000+0  45258-4 0  9992
2 00733  99.1155 212.6977 0031757 257.2288 102.5345 14.34075100256060
SL-3 R/B                
1 00877U 64053B   26192.75982793  .00000037  00000+0  31505-4 0  9997
2 00877  65.0781 327.4618 0080375 253.4073 105.8190 14.61438423284924
SL-8 R/B                
1 02802U 67045B   26192.79005094  .00000124  00000+0  41774-4 0  9991
2 02802  74.0112 116.3089 0063011  93.9102 266.9263 14.45694353106951
SL-8 R/B                
1 03230U 68040B   26192.79661683  .00001383  00000+0  10276-3 0  9995
2 03230  74.0292  59.9568 0025243 208.6719 151.3084 15.03930643108662
OAO 2                   
1 03597U 68110A   26192.33735563  .00000103  00000+0  32784-4 0  9996
2 03597  34.9938 294.8353 0004865 110.5272 249.5941 14.47361007 37026
ISIS 1                  
1 03669U 69009A   26192.26777558  .00000028  00000+0  13884-4 0  9992
2 03669  88.4450 141.7552 1707074 199.5844 153.1057 11.30436233362498
SERT 2                  
1 04327U 70009A   26192.77586519 -.00000030  00000+0  16201-4 0  9997
2 04327  99.2841 129.1696 0004402 198.3894 224.0408 13.58740785796748
SL-3 R/B                
1 05118U 71028B   26192.70620476  .00035995  00000+0  27113-3 0  9992
2 05118  81.2318 257.6049 0014548 194.0685 166.0172 15.72188630  8099
ASTEX 1                 
1 05560U 71089A   26192.55636500  .00000199  00000+0  50550-4 0  9998
2 05560  92.7003 191.7041 0016763  33.9819 326.2457 14.50869824880268
SL-8 R/B                
1 05730U 71119B   26192.75654192  .00004153  00000+0  21369-3 0  9999
2 05730  73.8884 303.4000 0542904 244.4279 109.9823 14.39706521673333
OAO 3 (COPERNICUS)      
1 06153U 72065A   26192.44324821  .00000150  00000+0  35095-4 0  9994
2 06153  35.0065 312.1960 0005914  92.5560 323.4739 14.60073657864293
ATLAS CENTAUR R/B       
1 06155U 72065B   26192.73254960  .00000410  00000+0  58750-4 0  9996
2 06155  35.0021 298.6419 0033892 333.7408  26.1575 14.77962924859629
SL-8 R/B                
1 08459U 75112B   26191.34234877  .00000136  00000+0  53171-4 0  9999
2 08459  74.0602 153.2754 0016373 216.9313 143.0715 14.38256404649501
SL-3 R/B                
1 10114U 77057B   26192.71424563  .00006653  00000+0  12750-3 0  9992
2 10114  97.5846  10.4530 0006836 182.4840 177.6377 15.48364622687506
SEASAT 1                
1 10967U 78064A   26190.99580225  .00000071  00000+0  58254-4 0  9991
2 10967 108.0184  22.1698 0001198 249.4991 110.6026 14.46258213524195
SL-14 R/B               
1 11267U 79011B   26192.78827021  .00000312  00000+0  28190-4 0  9999
2 11267  82.5251 338.8058 0016100   8.5155 351.6335 14.92036236547287
SL-8 R/B                
1 11574U 79089B   26192.54909798  .00000106  00000+0  40074-4 0  9997
2 11574  74.0670 221.7589 0015844 357.4528   2.6545 14.42414066453965
SL-14 R/B               
1 11672U 80005B   26192.48049464  .00000298  00000+0  27434-4 0  9991
2 11672  82.5134 189.7951 0017243 108.8216 251.4876 14.91048105494930
SL-8 R/B                
1 12139U 81003B   26192.39928411  .00011249  00000+0  26732-3 0  9994
2 12139  82.9361 175.2648 0250134 106.7994 256.0840 15.14975936333386
SL-3 R/B                
1 12465U 81046B   26192.74410616  .00007678  00000+0  16296-3 0  9990
2 12465  81.2306 140.4758 0015973 310.3662  49.6187 15.44728181457568
SL-3 R/B                
1 12904U 81103B   26192.76734794  .00002129  00000+0  90725-4 0  9996
2 12904  81.1578  67.7515 0011825 224.1520 135.8769 15.22473462992108
SL-3 R/B                
1 13068U 82013B   26192.73118830  .00002530  00000+0  10589-3 0  9998
2 13068  81.1732  15.2426 0022829 119.6331 240.7179 15.22945877423222
SL-3 R/B                
1 13154U 82039B   26192.74179543  .00001956  00000+0  11575-3 0  9998
2 13154  81.1505  72.7201 0027957 270.3953  89.4069 15.10685874400368
SL-3 R/B                
1 13403U 82079B   26192.70732378  .00002961  00000+0  11314-3 0  9994
2 13403  81.1449  46.4783 0024968 104.8309 255.5693 15.25992976396600
SL-14 R/B               
1 13553U 82092B   26192.68197514  .00000244  00000+0  24640-4 0  9998
2 13553  82.5667  25.3789 0018840 248.1780 157.8063 14.86763381347357
SL-3 R/B                
1 13819U 83010B   26192.53328087  .00008879  00000+0  15818-3 0  9997
2 13819  81.0997 209.9652 0013572 337.2461  22.8182 15.49846190377103
SL-3 R/B                
1 14208U 83075B   26192.74896590  .00006421  00000+0  15701-3 0  9995
2 14208  97.6105 202.2639 0021920 141.2136 219.0688 15.40936248349249
COSMOS 1536             
1 14699U 84013A   26192.50296827  .00004200  00000+0  16508-3 0  9992
2 14699  82.5450 344.6202 0013588 201.4449 158.6222 15.25316212291483
SL-14 R/B               
1 14820U 84027B   26192.79157328  .00000216  00000+0  21865-4 0  9992
2 14820  82.5430 128.6452 0016373 283.9507  75.9888 14.86077764266066
